[{"OBJECT_NAME":"STARLINK-5794","OBJECT_ID":"2023-042W","EPOCH":"2026-03-09T00:23:42.562176","MEAN_MOTION":15.02534429,"ECCENTRICITY":6.895e-5,"INCLINATION":43.0014,"RA_OF_ASC_NODE":59.3729,"ARG_OF_PERICENTER":256.3296,"MEAN_ANOMALY":103.7469,"EPHEMERIS_TYPE":0,"CLASSIFICATION_TYPE":"U","NORAD_CAT_ID":56006,"ELEMENT_SET_NO":999,"REV_AT_EPOCH":16281,"BSTAR":-1.0557403e-5,"MEAN_MOTION_DOT":-3.46e-6,"MEAN_MOTION_DDOT":0},{"OBJECT_NAME":"CZ-2C DEB","OBJECT_ID":"2014-014E","EPOCH":"2026-03-09T21:08:21.809472","MEAN_MOTION":14.90058698,"ECCENTRICITY":0.00536612,"INCLINATION":98.2109,"RA_OF_ASC_NODE":181.9668,"ARG_OF_PERICENTER":42.9038,"MEAN_ANOMALY":317.6346,"EPHEMERIS_TYPE":0,"CLASSIFICATION_TYPE":"U","NORAD_CAT_ID":39628,"ELEMENT_SET_NO":999,"REV_AT_EPOCH":63514,"BSTAR":0.00154127,"MEAN_MOTION_DOT":0.00015258,"MEAN_MOTION_DDOT":0}]
